start=new Date('2022-08-19T00:00:00.000Z').valueOf();
sats=[{"EPHEMERIS_TYPE":"0","PERIAPSIS":"546.409","TLE_LINE1":"1 47179U 20088BK  22230.40167094  .00001813  00000-0  14055-3 0  9997","SITE":"AFETR","EPOCH":"2022-08-18T09:38:24.369216","COUNTRY_CODE":"US","MEAN_MOTION":"15.06397642","RCS_SIZE":"LARGE","APOAPSIS":"548.032","PERIOD":"95.592","ECCENTRICITY":"0.00011720","MEAN_MOTION_DOT":"0.00001813","OBJECT_NAME":"STARLINK-1913","MEAN_MOTION_DDOT":"0.0000000000000","ELEMENT_SET_NO":"999","TIME_SYSTEM":"UTC","REF_FRAME":"TEME","OBJECT_TYPE":"PAYLOAD","REV_AT_EPOCH":"9586","ARG_OF_PERICENTER":"85.0188","LAUNCH_DATE":"2020-11-25","CENTER_NAME":"EARTH","MEAN_ELEMENT_THEORY":"SGP4","CLASSIFICATION_TYPE":"U","INCLINATION":"53.0561","TLE_LINE2":"2 47179  53.0561  24.3562 0001172  85.0188 275.0935 15.06397642 95865","SEMIMAJOR_AXIS":"6925.356","GP_ID":"210440095","BSTAR":"0.00014055000000","FILE":"3539281","RA_OF_ASC_NODE":"24.3562","NORAD_CAT_ID":"47179","OBJECT_ID":"2020-088BK","DECAY_DATE":null,"MEAN_ANOMALY":"275.0935"},{"TLE_LINE1":"1 47181U 20088BM  22230.44126686 -.00008432  00000-0 -54715-3 0  9999","SITE":"AFETR","EPOCH":"2022-08-18T10:35:25.456704","COUNTRY_CODE":"US","EPHEMERIS_TYPE":"0","PERIAPSIS":"545.895","MEAN_MOTION_DDOT":"0.0000000000000","ELEMENT_SET_NO":"999","TIME_SYSTEM":"UTC","REF_FRAME":"TEME","RCS_SIZE":"LARGE","MEAN_MOTION":"15.06446182","APOAPSIS":"548.249","ECCENTRICITY":"0.00017000","PERIOD":"95.589","MEAN_MOTION_DOT":"-0.00008432","OBJECT_NAME":"STARLINK-1927","MEAN_ELEMENT_THEORY":"SGP4","CLASSIFICATION_TYPE":"U","OBJECT_TYPE":"PAYLOAD","REV_AT_EPOCH":"9654","LAUNCH_DATE":"2020-11-25","ARG_OF_PERICENTER":"81.8088","CENTER_NAME":"EARTH","NORAD_CAT_ID":"47181","OBJECT_ID":"2020-088BM","DECAY_DATE":null,"MEAN_ANOMALY":"278.3094","INCLINATION":"53.0557","TLE_LINE2":"2 47181  53.0557 354.1889 0001700  81.8088 278.3094 15.06446182 96541","GP_ID":"210450332","SEMIMAJOR_AXIS":"6925.207","BSTAR":"-0.00054715000000","FILE":"3539528","RA_OF_ASC_NODE":"354.1889"},{"PERIAPSIS":"309.332","EPHEMERIS_TYPE":"0","COUNTRY_CODE":"US","EPOCH":"2022-08-18T20:29:10.362624","SITE":"AFETR","TLE_LINE1":"1 47349U 21005A   22230.85359216  .00198309  00000-0  83671-3 0  9991","OBJECT_NAME":"STARLINK-1952","PERIOD":"90.896","MEAN_MOTION_DOT":"0.00198309","ECCENTRICITY":"0.00136760","RCS_SIZE":"LARGE","MEAN_MOTION":"15.84231825","APOAPSIS":"327.649","REF_FRAME":"TEME","MEAN_MOTION_DDOT":"0.0000000000000","TIME_SYSTEM":"UTC","ELEMENT_SET_NO":"999","REV_AT_EPOCH":"8965","CENTER_NAME":"EARTH","ARG_OF_PERICENTER":"8.5289","LAUNCH_DATE":"2021-01-20","OBJECT_TYPE":"PAYLOAD","CLASSIFICATION_TYPE":"U","MEAN_ELEMENT_THEORY":"SGP4","RA_OF_ASC_NODE":"322.0358","FILE":"3539615","TLE_LINE2":"2 47349  53.0254 322.0358 0013676   8.5289 351.5964 15.84231825 89656","INCLINATION":"53.0254","BSTAR":"0.00083671000000","SEMIMAJOR_AXIS":"6696.626","GP_ID":"210474593","MEAN_ANOMALY":"351.5964","DECAY_DATE":null,"OBJECT_ID":"2021-005A","NORAD_CAT_ID":"47349"},{"TLE_LINE1":"1 47350U 21005B   22230.81171214  .00000791  00000-0  71965-4 0  9990","SITE":"AFETR","EPOCH":"2022-08-18T19:28:51.928896","COUNTRY_CODE":"US","EPHEMERIS_TYPE":"0","PERIAPSIS":"546.128","ELEMENT_SET_NO":"999","TIME_SYSTEM":"UTC","MEAN_MOTION_DDOT":"0.0000000000000","REF_FRAME":"TEME","APOAPSIS":"548.223","MEAN_MOTION":"15.06412446","RCS_SIZE":"LARGE","ECCENTRICITY":"0.00015120","PERIOD":"95.591","MEAN_MOTION_DOT":"0.00000791","OBJECT_NAME":"STARLINK-2011","MEAN_ELEMENT_THEORY":"SGP4","CLASSIFICATION_TYPE":"U","OBJECT_TYPE":"PAYLOAD","ARG_OF_PERICENTER":"51.9433","LAUNCH_DATE":"2021-01-20","CENTER_NAME":"EARTH","REV_AT_EPOCH":"8727","NORAD_CAT_ID":"47350","OBJECT_ID":"2021-005B","DECAY_DATE":null,"MEAN_ANOMALY":"308.1692","SEMIMAJOR_AXIS":"6925.310","GP_ID":"210474842","BSTAR":"0.00007196500000","INCLINATION":"53.0547","TLE_LINE2":"2 47350  53.0547 132.5193 0001512  51.9433 308.1692 15.06412446 87279","FILE":"3539615","RA_OF_ASC_NODE":"132.5193"},{"CLASSIFICATION_TYPE":"U","MEAN_ELEMENT_THEORY":"SGP4","CENTER_NAME":"EARTH","LAUNCH_DATE":"2021-01-20","ARG_OF_PERICENTER":"95.8071","REV_AT_EPOCH":"8782","OBJECT_TYPE":"PAYLOAD","MEAN_ANOMALY":"264.3072","DECAY_DATE":null,"OBJECT_ID":"2021-005C","NORAD_CAT_ID":"47351","RA_OF_ASC_NODE":"92.6615","FILE":"3539615","BSTAR":"0.00010853000000","GP_ID":"210474091","SEMIMAJOR_AXIS":"6925.322","TLE_LINE2":"2 47351  53.0543  92.6615 0001352  95.8071 264.3072 15.06408605 87826","INCLINATION":"53.0543","COUNTRY_CODE":"US","EPOCH":"2022-08-18T18:34:26.683680","SITE":"AFETR","TLE_LINE1":"1 47351U 21005C   22230.77391995  .00001336  00000-0  10853-3 0  9990","PERIAPSIS":"546.251","EPHEMERIS_TYPE":"0","REF_FRAME":"TEME","TIME_SYSTEM":"UTC","ELEMENT_SET_NO":"999","MEAN_MOTION_DDOT":"0.0000000000000","MEAN_MOTION_DOT":"0.00001336","PERIOD":"95.592","OBJECT_NAME":"STARLINK-2017","ECCENTRICITY":"0.00013520","APOAPSIS":"548.123","MEAN_MOTION":"15.06408605","RCS_SIZE":"LARGE"},{"REF_FRAME":"TEME","MEAN_MOTION_DDOT":"0.0000000000000","TIME_SYSTEM":"UTC","ELEMENT_SET_NO":"999","MEAN_MOTION_DOT":"0.00002231","PERIOD":"95.592","ECCENTRICITY":"0.00015360","OBJECT_NAME":"STARLINK-2034","RCS_SIZE":"LARGE","MEAN_MOTION":"15.06405506","APOAPSIS":"548.260","COUNTRY_CODE":"US","EPOCH":"2022-08-18T03:06:57.375072","SITE":"AFETR","TLE_LINE1":"1 47352U 21005D   22230.12983073  .00002231  00000-0  16862-3 0  9995","PERIAPSIS":"546.133","EPHEMERIS_TYPE":"0","MEAN_ANOMALY":"291.0833","DECAY_DATE":null,"OBJECT_ID":"2021-005D","NORAD_CAT_ID":"47352","FILE":"3539281","RA_OF_ASC_NODE":"135.5776","TLE_LINE2":"2 47352  53.0546 135.5776 0001536  69.0320 291.0833 15.06405506 87165","INCLINATION":"53.0546","BSTAR":"0.00016862000000","SEMIMAJOR_AXIS":"6925.332","GP_ID":"210441612","CLASSIFICATION_TYPE":"U","MEAN_ELEMENT_THEORY":"SGP4","REV_AT_EPOCH":"8716","CENTER_NAME":"EARTH","LAUNCH_DATE":"2021-01-20","ARG_OF_PERICENTER":"69.0320","OBJECT_TYPE":"PAYLOAD"},{"APOAPSIS":"548.311","RCS_SIZE":"LARGE","MEAN_MOTION":"15.06392044","MEAN_MOTION_DOT":"0.00001692","PERIOD":"95.593","ECCENTRICITY":"0.00015490","OBJECT_NAME":"STARLINK-2045","TIME_SYSTEM":"UTC","ELEMENT_SET_NO":"999","MEAN_MOTION_DDOT":"0.0000000000000","REF_FRAME":"TEME","PERIAPSIS":"546.165","EPHEMERIS_TYPE":"0","SITE":"AFETR","TLE_LINE1":"1 47353U 21005E   22230.68225704  .00001692  00000-0  13251-3 0  9996","COUNTRY_CODE":"US","EPOCH":"2022-08-18T16:22:27.008256","BSTAR":"0.00013251000000","GP_ID":"210475093","SEMIMAJOR_AXIS":"6925.373","TLE_LINE2":"2 47353  53.0552  78.0985 0001549  87.3892 272.7275 15.06392044 88021","INCLINATION":"53.0552","RA_OF_ASC_NODE":"78.0985","FILE":"3539615","OBJECT_ID":"2021-005E","NORAD_CAT_ID":"47353","MEAN_ANOMALY":"272.7275","DECAY_DATE":null,"OBJECT_TYPE":"PAYLOAD","CENTER_NAME":"EARTH","LAUNCH_DATE":"2021-01-20","ARG_OF_PERICENTER":"87.3892","REV_AT_EPOCH":"8802","MEAN_ELEMENT_THEORY":"SGP4","CLASSIFICATION_TYPE":"U"},{"CLASSIFICATION_TYPE":"U","MEAN_ELEMENT_THEORY":"SGP4","REV_AT_EPOCH":"8773","ARG_OF_PERICENTER":"75.4081","LAUNCH_DATE":"2021-01-20","CENTER_NAME":"EARTH","OBJECT_TYPE":"PAYLOAD","DECAY_DATE":null,"MEAN_ANOMALY":"284.7079","NORAD_CAT_ID":"47354","OBJECT_ID":"2021-005F","RA_OF_ASC_NODE":"98.3232","FILE":"3539615","INCLINATION":"53.0532","TLE_LINE2":"2 47354  53.0532  98.3232 0001544  75.4081 284.7079 15.06398430 87730","SEMIMAJOR_AXIS":"6925.353","GP_ID":"210475342","BSTAR":"0.00009853700000","EPOCH":"2022-08-18T15:05:29.400864","COUNTRY_CODE":"US","TLE_LINE1":"1 47354U 21005F   22230.62881251  .00001186  00000-0  98537-4 0  9995","SITE":"AFETR","EPHEMERIS_TYPE":"0","PERIAPSIS":"546.149","REF_FRAME":"TEME","MEAN_MOTION_DDOT":"0.0000000000000","ELEMENT_SET_NO":"999","TIME_SYSTEM":"UTC","PERIOD":"95.592","MEAN_MOTION_DOT":"0.00001186","ECCENTRICITY":"0.00015440","OBJECT_NAME":"STARLINK-2046","MEAN_MOTION":"15.06398430","RCS_SIZE":"LARGE","APOAPSIS":"548.288"},{"CLASSIFICATION_TYPE":"U","MEAN_ELEMENT_THEORY":"SGP4","REV_AT_EPOCH":"8793","ARG_OF_PERICENTER":"84.4383","LAUNCH_DATE":"2021-01-20","CENTER_NAME":"EARTH","OBJECT_TYPE":"PAYLOAD","DECAY_DATE":null,"MEAN_ANOMALY":"275.6793","NORAD_CAT_ID":"47355","OBJECT_ID":"2021-005G","FILE":"3539281","RA_OF_ASC_NODE":"83.5193","INCLINATION":"53.0529","TLE_LINE2":"2 47355  53.0529  83.5193 0001639  84.4383 275.6793 15.06400572 87934","GP_ID":"210440362","SEMIMAJOR_AXIS":"6925.347","BSTAR":"0.00012431000000","EPOCH":"2022-08-18T14:01:07.957632","COUNTRY_CODE":"US","TLE_LINE1":"1 47355U 21005G   22230.58411988  .00001571  00000-0  12431-3 0  9993","SITE":"AFETR","EPHEMERIS_TYPE":"0","PERIAPSIS":"546.077","REF_FRAME":"TEME","MEAN_MOTION_DDOT":"0.0000000000000","ELEMENT_SET_NO":"999","TIME_SYSTEM":"UTC","PERIOD":"95.592","ECCENTRICITY":"0.00016390","MEAN_MOTION_DOT":"0.00001571","OBJECT_NAME":"STARLINK-2047","MEAN_MOTION":"15.06400572","RCS_SIZE":"LARGE","APOAPSIS":"548.347"},{"ELEMENT_SET_NO":"999","TIME_SYSTEM":"UTC","MEAN_MOTION_DDOT":"0.0000000000000","REF_FRAME":"TEME","APOAPSIS":"548.329","MEAN_MOTION":"15.06382790","RCS_SIZE":"LARGE","PERIOD":"95.593","OBJECT_NAME":"STARLINK-2049","MEAN_MOTION_DOT":"-0.00000408","ECCENTRICITY":"0.00015340","TLE_LINE1":"1 47356U 21005H   22230.36482045 -.00000408  00000-0 -85173-5 0  9997","SITE":"AFETR","EPOCH":"2022-08-18T08:45:20.486880","COUNTRY_CODE":"US","EPHEMERIS_TYPE":"0","PERIAPSIS":"546.204","NORAD_CAT_ID":"47356","OBJECT_ID":"2021-005H","DECAY_DATE":null,"MEAN_ANOMALY":"286.3159","GP_ID":"210441113","SEMIMAJOR_AXIS":"6925.401","BSTAR":"-0.00000851730000","INCLINATION":"53.0531","TLE_LINE2":"2 47356  53.0531 104.5174 0001534  73.7999 286.3159 15.06382790 87621","RA_OF_ASC_NODE":"104.5174","FILE":"3539281","MEAN_ELEMENT_THEORY":"SGP4","CLASSIFICATION_TYPE":"U","OBJECT_TYPE":"PAYLOAD","ARG_OF_PERICENTER":"73.7999","LAUNCH_DATE":"2021-01-20","CENTER_NAME":"EARTH","REV_AT_EPOCH":"8762"}];
